[
    {
        "Altitude(m)": 707046.8664334823,
        "Argument of Periapsis(deg)": 0.0034170363559881197,
        "Eccentricity": 0.0,
        "Inclination(deg)": 45.0,
        "Latitude(deg)": 43.98428730514739,
        "Longitude(deg)": 146.05552220706096,
        "Mean Anomaly(deg)": 101.64176499424426,
        "RAAN(deg)": 139.99677441756253,
        "Satellite Name": "Constellation 1 622",
        "Satellite Number": 622,
        "Semi-Major Axis(m)": 7083131.272910544,
        "Time(s)": 57
    },
    {
        "Altitude(m)": 707044.161016673,
        "Argument of Periapsis(deg)": 0.003476984362233526,
        "Eccentricity": 0.0,
        "Inclination(deg)": 45.0,
        "Latitude(deg)": 43.972207907920065,
        "Longitude(deg)": 146.13391676116004,
        "Mean Anomaly(deg)": 101.70246613449413,
        "RAAN(deg)": 139.99671782839695,
        "Satellite Name": "Constellation 1 622",
        "Satellite Number": 622,
        "Semi-Major Axis(m)": 7083131.272910544,
        "Time(s)": 58
    },
    {
        "Altitude(m)": 707041.4425239447,
        "Argument of Periapsis(deg)": 0.003536932368478932,
        "Eccentricity": 0.0,
        "Inclination(deg)": 45.0,
        "Latitude(deg)": 43.960068963389105,
        "Longitude(deg)": 146.21227765028183,
        "Mean Anomaly(deg)": 101.763167274744,
        "RAAN(deg)": 139.9966612392314,
        "Satellite Name": "Constellation 1 622",
        "Satellite Number": 622,
        "Semi-Major Axis(m)": 7083131.272910544,
        "Time(s)": 59
    },
    {
        "Altitude(m)": 707038.7109713417,
        "Argument of Periapsis(deg)": 0.003596880374724337,
        "Eccentricity": 0.0,
        "Inclination(deg)": 45.0,
        "Latitude(deg)": 43.947870520542864,
        "Longitude(deg)": 146.29060507398015,
        "Mean Anomaly(deg)": 101.82386841499397,
        "RAAN(deg)": 139.99660465006582,
        "Satellite Name": "Constellation 1 622",
        "Satellite Number": 622,
        "Semi-Major Axis(m)": 7083131.272910544,
        "Time(s)": 60
    },
    {
        "Altitude(m)": 707035.9663749866,
        "Argument of Periapsis(deg)": 0.0036568283809697427,
        "Eccentricity": 0.0,
        "Inclination(deg)": 45.0,
        "Latitude(deg)": 43.93561262855973,
        "Longitude(deg)": 146.36889872803516,
        "Mean Anomaly(deg)": 101.8845695552438,
        "RAAN(deg)": 139.99654806090027,
        "Satellite Name": "Constellation 1 622",
        "Satellite Number": 622,
        "Semi-Major Axis(m)": 7083131.272910544,
        "Time(s)": 61
    },
    {
        "Altitude(m)": 707033.2087510723,
        "Argument of Periapsis(deg)": 0.003716776387215149,
        "Eccentricity": 0.0,
        "Inclination(deg)": 45.0,
        "Latitude(deg)": 43.92329533680632,
        "Longitude(deg)": 146.44715847684427,
        "Mean Anomaly(deg)": 101.94527069549373,
        "RAAN(deg)": 139.99649147173469,
        "Satellite Name": "Constellation 1 622",
        "Satellite Number": 622,
        "Semi-Major Axis(m)": 7083131.272910544,
        "Time(s)": 62
    },
    {
        "Altitude(m)": 707030.4381158807,
        "Argument of Periapsis(deg)": 0.003776724393460554,
        "Eccentricity": 0.0,
        "Inclination(deg)": 45.0,
        "Latitude(deg)": 43.910918694836866,
        "Longitude(deg)": 146.5253841853252,
        "Mean Anomaly(deg)": 102.00597183574361,
        "RAAN(deg)": 139.9964348825691,
        "Satellite Name": "Constellation 1 622",
        "Satellite Number": 622,
        "Semi-Major Axis(m)": 7083131.272910544,
        "Time(s)": 63
    },
    {
        "Altitude(m)": 707027.6544857615,
        "Argument of Periapsis(deg)": 0.003836672399705959,
        "Eccentricity": 0.0,
        "Inclination(deg)": 45.0,
        "Latitude(deg)": 43.898482752392276,
        "Longitude(deg)": 146.60357571891814,
        "Mean Anomaly(deg)": 102.06667297599354,
        "RAAN(deg)": 139.99637829340355,
        "Satellite Name": "Constellation 1 622",
        "Satellite Number": 622,
        "Semi-Major Axis(m)": 7083131.272910544,
        "Time(s)": 64
    },
    {
        "Altitude(m)": 707024.8578771518,
        "Argument of Periapsis(deg)": 0.003896620405951365,
        "Eccentricity": 0.0,
        "Inclination(deg)": 45.0,
        "Latitude(deg)": 43.88598755939927,
        "Longitude(deg)": 146.68173294358618,
        "Mean Anomaly(deg)": 102.12737411624343,
        "RAAN(deg)": 139.99632170423797,
        "Satellite Name": "Constellation 1 622",
        "Satellite Number": 622,
        "Semi-Major Axis(m)": 7083131.272910544,
        "Time(s)": 65
    },
    {
        "Altitude(m)": 707022.048306557,
        "Argument of Periapsis(deg)": 0.003956568412196771,
        "Eccentricity": 0.0,
        "Inclination(deg)": 45.0,
        "Latitude(deg)": 43.8734331659695,
        "Longitude(deg)": 146.759855725817,
        "Mean Anomaly(deg)": 102.18807525649329,
        "RAAN(deg)": 139.99626511507242,
        "Satellite Name": "Constellation 1 622",
        "Satellite Number": 622,
        "Semi-Major Axis(m)": 7083131.272910544,
        "Time(s)": 66
    },
    {
        "Altitude(m)": 707019.2257905664,
        "Argument of Periapsis(deg)": 0.004016516418442176,
        "Eccentricity": 0.0,
        "Inclination(deg)": 45.0,
        "Latitude(deg)": 43.860819622398964,
        "Longitude(deg)": 146.8379437645267,
        "Mean Anomaly(deg)": 102.24877639674328,
        "RAAN(deg)": 139.99620852590684,
        "Satellite Name": "Constellation 1 622",
        "Satellite Number": 622,
        "Semi-Major Axis(m)": 7083131.272910544,
        "Time(s)": 67
    },
    {
        "Altitude(m)": 707016.3903458419,
        "Argument of Periapsis(deg)": 0.004076464424687581,
        "Eccentricity": 0.0,
        "Inclination(deg)": 45.0,
        "Latitude(deg)": 43.84814697916609,
        "Longitude(deg)": 146.91599726344953,
        "Mean Anomaly(deg)": 102.30947753699313,
        "RAAN(deg)": 139.99615193674126,
        "Satellite Name": "Constellation 1 622",
        "Satellite Number": 622,
        "Semi-Major Axis(m)": 7083131.272910544,
        "Time(s)": 68
    },
    {
        "Altitude(m)": 707013.5419891364,
        "Argument of Periapsis(deg)": 0.004136412430932987,
        "Eccentricity": 0.0,
        "Inclination(deg)": 45.0,
        "Latitude(deg)": 43.83541528693233,
        "Longitude(deg)": 146.99401592255626,
        "Mean Anomaly(deg)": 102.37017867724302,
        "RAAN(deg)": 139.9960953475757,
        "Satellite Name": "Constellation 1 622",
        "Satellite Number": 622,
        "Semi-Major Axis(m)": 7083131.272910544,
        "Time(s)": 69
    },
    {
        "Altitude(m)": 707010.6807372562,
        "Argument of Periapsis(deg)": 0.004196360437178394,
        "Eccentricity": 0.0,
        "Inclination(deg)": 45.0,
        "Latitude(deg)": 43.8226245965403,
        "Longitude(deg)": 147.07199961044375,
        "Mean Anomaly(deg)": 102.43087981749292,
        "RAAN(deg)": 139.99603875841015,
        "Satellite Name": "Constellation 1 622",
        "Satellite Number": 622,
        "Semi-Major Axis(m)": 7083131.272910544,
        "Time(s)": 70
    },
    {
        "Altitude(m)": 707007.806607113,
        "Argument of Periapsis(deg)": 0.004256308443423799,
        "Eccentricity": 0.0,
        "Inclination(deg)": 45.0,
        "Latitude(deg)": 43.80977495901308,
        "Longitude(deg)": 147.149948196239,
        "Mean Anomaly(deg)": 102.49158095774283,
        "RAAN(deg)": 139.99598216924454,
        "Satellite Name": "Constellation 1 622",
        "Satellite Number": 622,
        "Semi-Major Axis(m)": 7083131.272910544,
        "Time(s)": 71
    },
    {
        "Altitude(m)": 707004.919615671,
        "Argument of Periapsis(deg)": 0.004316256449669204,
        "Eccentricity": 0.0,
        "Inclination(deg)": 45.0,
        "Latitude(deg)": 43.79686642555348,
        "Longitude(deg)": 147.22786154960028,
        "Mean Anomaly(deg)": 102.5522820979927,
        "RAAN(deg)": 139.995925580079,
        "Satellite Name": "Constellation 1 622",
        "Satellite Number": 622,
        "Semi-Major Axis(m)": 7083131.272910544,
        "Time(s)": 72
    },
    {
        "Altitude(m)": 707002.0197799886,
        "Argument of Periapsis(deg)": 0.00437620445591461,
        "Eccentricity": 0.0,
        "Inclination(deg)": 45.0,
        "Latitude(deg)": 43.78389904754295,
        "Longitude(deg)": 147.30573954071798,
        "Mean Anomaly(deg)": 102.61298323824259,
        "RAAN(deg)": 139.99586899091344,
        "Satellite Name": "Constellation 1 622",
        "Satellite Number": 622,
        "Semi-Major Axis(m)": 7083131.272910544,
        "Time(s)": 73
    },
    {
        "Altitude(m)": 706999.1071171936,
        "Argument of Periapsis(deg)": 0.004436152462160016,
        "Eccentricity": 0.0,
        "Inclination(deg)": 45.0,
        "Latitude(deg)": 43.77087287654108,
        "Longitude(deg)": 147.38358187221866,
        "Mean Anomaly(deg)": 102.67368437849257,
        "RAAN(deg)": 139.99581240174786,
        "Satellite Name": "Constellation 1 622",
        "Satellite Number": 622,
        "Semi-Major Axis(m)": 7083131.272910544,
        "Time(s)": 74
    },
    {
        "Altitude(m)": 706996.1816444932,
        "Argument of Periapsis(deg)": 0.0044961004684054215,
        "Eccentricity": 0.0,
        "Inclination(deg)": 45.0,
        "Latitude(deg)": 43.75778796428366,
        "Longitude(deg)": 147.4613887515548,
        "Mean Anomaly(deg)": 102.73438551874244,
        "RAAN(deg)": 139.9957558125823,
        "Satellite Name": "Constellation 1 622",
        "Satellite Number": 622,
        "Semi-Major Axis(m)": 7083131.272910544,
        "Time(s)": 75
    }
]